start=new Date('2023-04-18T00:00:00.000Z').valueOf();
sats=[{"OBJECT_NAME":"STARLINK-1846","FILE":"3889391","GP_ID":"230261644","SITE":"AFETR","OBJECT_TYPE":"PAYLOAD","REF_FRAME":"TEME","NORAD_CAT_ID":"47136","DECAY_DATE":null,"RA_OF_ASC_NODE":"5.7163","TIME_SYSTEM":"UTC","COUNTRY_CODE":"US","MEAN_ELEMENT_THEORY":"SGP4","OBJECT_ID":"2020-088Q","BSTAR":"0.00230350000000","MEAN_ANOMALY":"242.5520","ECCENTRICITY":"0.00007540","PERIAPSIS":"546.608","EPHEMERIS_TYPE":"0","SEMIMAJOR_AXIS":"6925.265","CLASSIFICATION_TYPE":"U","ELEMENT_SET_NO":"999","RCS_SIZE":"LARGE","PERIOD":"95.590","LAUNCH_DATE":"2020-11-25","INCLINATION":"53.0551","MEAN_MOTION_DDOT":"0.0000000000000","EPOCH":"2023-04-17T21:42:07.774560","ARG_OF_PERICENTER":"117.5545","REV_AT_EPOCH":"13255","MEAN_MOTION_DOT":"0.00034221","TLE_LINE1":"1 47136U 20088Q   23107.90425665  .00034221  00000-0  23035-2 0  9996","CENTER_NAME":"EARTH","APOAPSIS":"547.653","TLE_LINE2":"2 47136  53.0551   5.7163 0000754 117.5545 242.5520 15.06427108132558","MEAN_MOTION":"15.06427108"},{"SITE":"AFETR","OBJECT_TYPE":"PAYLOAD","REF_FRAME":"TEME","NORAD_CAT_ID":"47137","OBJECT_NAME":"STARLINK-1849","GP_ID":"230262393","FILE":"3889391","RA_OF_ASC_NODE":"355.7874","DECAY_DATE":null,"OBJECT_ID":"2020-088R","BSTAR":"0.00222490000000","TIME_SYSTEM":"UTC","COUNTRY_CODE":"US","MEAN_ELEMENT_THEORY":"SGP4","PERIAPSIS":"546.922","ECCENTRICITY":"0.00002770","MEAN_ANOMALY":"292.7743","CLASSIFICATION_TYPE":"U","ELEMENT_SET_NO":"999","EPHEMERIS_TYPE":"0","SEMIMAJOR_AXIS":"6925.249","LAUNCH_DATE":"2020-11-25","INCLINATION":"53.0554","MEAN_MOTION_DDOT":"0.0000000000000","EPOCH":"2023-04-17T21:16:54.142464","ARG_OF_PERICENTER":"67.3275","REV_AT_EPOCH":"13269","RCS_SIZE":"LARGE","PERIOD":"95.590","TLE_LINE1":"1 47137U 20088R   23107.88673776  .00033043  00000-0  22249-2 0  9999","MEAN_MOTION_DOT":"0.00033043","APOAPSIS":"547.306","TLE_LINE2":"2 47137  53.0554 355.7874 0000277  67.3275 292.7743 15.06432565132693","MEAN_MOTION":"15.06432565","CENTER_NAME":"EARTH"},{"RA_OF_ASC_NODE":"1.1182","DECAY_DATE":null,"OBJECT_NAME":"STARLINK-1850","GP_ID":"230260643","FILE":"3889391","OBJECT_TYPE":"PAYLOAD","SITE":"AFETR","NORAD_CAT_ID":"47138","REF_FRAME":"TEME","MEAN_ANOMALY":"302.9804","PERIAPSIS":"546.346","ECCENTRICITY":"0.00011230","MEAN_ELEMENT_THEORY":"SGP4","COUNTRY_CODE":"US","TIME_SYSTEM":"UTC","BSTAR":"0.00280230000000","OBJECT_ID":"2020-088S","RCS_SIZE":"LARGE","PERIOD":"95.590","EPOCH":"2023-04-17T21:13:38.384256","MEAN_MOTION_DDOT":"0.0000000000000","INCLINATION":"53.0551","LAUNCH_DATE":"2020-11-25","REV_AT_EPOCH":"13262","ARG_OF_PERICENTER":"57.1293","SEMIMAJOR_AXIS":"6925.258","EPHEMERIS_TYPE":"0","CLASSIFICATION_TYPE":"U","ELEMENT_SET_NO":"999","CENTER_NAME":"EARTH","TLE_LINE2":"2 47138  53.0551   1.1182 0001123  57.1293 302.9804 15.06429480132620","APOAPSIS":"547.901","MEAN_MOTION":"15.06429480","MEAN_MOTION_DOT":"0.00041740","TLE_LINE1":"1 47138U 20088S   23107.88447204  .00041740  00000-0  28023-2 0  9994"},{"SITE":"AFETR","OBJECT_TYPE":"PAYLOAD","REF_FRAME":"TEME","NORAD_CAT_ID":"47139","OBJECT_NAME":"STARLINK-1852","GP_ID":"230260893","FILE":"3889391","DECAY_DATE":null,"RA_OF_ASC_NODE":"11.0772","OBJECT_ID":"2020-088T","BSTAR":"0.00272040000000","TIME_SYSTEM":"UTC","COUNTRY_CODE":"US","MEAN_ELEMENT_THEORY":"SGP4","ECCENTRICITY":"0.00010860","PERIAPSIS":"546.340","MEAN_ANOMALY":"304.7806","CLASSIFICATION_TYPE":"U","ELEMENT_SET_NO":"999","EPHEMERIS_TYPE":"0","SEMIMAJOR_AXIS":"6925.227","INCLINATION":"53.0554","LAUNCH_DATE":"2020-11-25","EPOCH":"2023-04-17T20:51:03.959712","MEAN_MOTION_DDOT":"0.0000000000000","ARG_OF_PERICENTER":"55.3286","REV_AT_EPOCH":"13247","RCS_SIZE":"LARGE","PERIOD":"95.590","TLE_LINE1":"1 47139U 20088T   23107.86879583  .00040516  00000-0  27204-2 0  9992","MEAN_MOTION_DOT":"0.00040516","APOAPSIS":"547.845","TLE_LINE2":"2 47139  53.0554  11.0772 0001086  55.3286 304.7806 15.06439513132472","MEAN_MOTION":"15.06439513","CENTER_NAME":"EARTH"},{"DECAY_DATE":null,"RA_OF_ASC_NODE":"355.9054","OBJECT_NAME":"STARLINK-1854","FILE":"3889391","GP_ID":"230262145","SITE":"AFETR","OBJECT_TYPE":"PAYLOAD","NORAD_CAT_ID":"47141","REF_FRAME":"TEME","MEAN_ANOMALY":"298.4169","PERIAPSIS":"546.437","ECCENTRICITY":"0.00010120","MEAN_ELEMENT_THEORY":"SGP4","COUNTRY_CODE":"US","TIME_SYSTEM":"UTC","BSTAR":"0.00278620000000","OBJECT_ID":"2020-088V","PERIOD":"95.591","RCS_SIZE":"LARGE","MEAN_MOTION_DDOT":"0.0000000000000","EPOCH":"2023-04-17T20:39:44.669088","INCLINATION":"53.0550","LAUNCH_DATE":"2020-11-25","REV_AT_EPOCH":"13269","ARG_OF_PERICENTER":"61.6922","SEMIMAJOR_AXIS":"6925.273","EPHEMERIS_TYPE":"0","CLASSIFICATION_TYPE":"U","ELEMENT_SET_NO":"999","CENTER_NAME":"EARTH","TLE_LINE2":"2 47141  53.0550 355.9054 0001012  61.6922 298.4169 15.06424689132693","APOAPSIS":"547.839","MEAN_MOTION":"15.06424689","MEAN_MOTION_DOT":"0.00041492","TLE_LINE1":"1 47141U 20088V   23107.86093367  .00041492  00000-0  27862-2 0  9997"},{"BSTAR":"0.00270050000000","OBJECT_ID":"2020-088X","MEAN_ELEMENT_THEORY":"SGP4","COUNTRY_CODE":"US","TIME_SYSTEM":"UTC","PERIAPSIS":"546.205","ECCENTRICITY":"0.00015530","MEAN_ANOMALY":"289.8303","NORAD_CAT_ID":"47143","REF_FRAME":"TEME","OBJECT_TYPE":"PAYLOAD","SITE":"AFETR","GP_ID":"230261894","FILE":"3889391","OBJECT_NAME":"STARLINK-1856","RA_OF_ASC_NODE":"355.6892","DECAY_DATE":null,"TLE_LINE1":"1 47143U 20088X   23107.90884913  .00040148  00000-0  27005-2 0  9995","MEAN_MOTION_DOT":"0.00040148","MEAN_MOTION":"15.06378114","APOAPSIS":"548.356","TLE_LINE2":"2 47143  53.0550 355.6892 0001553  70.2854 289.8303 15.06378114132697","CENTER_NAME":"EARTH","ELEMENT_SET_NO":"999","CLASSIFICATION_TYPE":"U","SEMIMAJOR_AXIS":"6925.416","EPHEMERIS_TYPE":"0","ARG_OF_PERICENTER":"70.2854","REV_AT_EPOCH":"13269","EPOCH":"2023-04-17T21:48:44.564832","MEAN_MOTION_DDOT":"0.0000000000000","INCLINATION":"53.0550","LAUNCH_DATE":"2020-11-25","PERIOD":"95.594","RCS_SIZE":"LARGE"},{"EPHEMERIS_TYPE":"0","SEMIMAJOR_AXIS":"6925.288","CLASSIFICATION_TYPE":"U","ELEMENT_SET_NO":"999","PERIOD":"95.591","RCS_SIZE":"LARGE","INCLINATION":"53.0546","LAUNCH_DATE":"2020-11-25","EPOCH":"2023-04-17T21:28:50.404512","MEAN_MOTION_DDOT":"0.0000000000000","ARG_OF_PERICENTER":"60.0384","REV_AT_EPOCH":"13283","MEAN_MOTION_DOT":"0.00037390","TLE_LINE1":"1 47144U 20088Y   23107.89502783  .00037390  00000-0  25144-2 0  9993","CENTER_NAME":"EARTH","TLE_LINE2":"2 47144  53.0546 345.7574 0000927  60.0384 300.0697 15.06419858132838","APOAPSIS":"547.795","MEAN_MOTION":"15.06419858","OBJECT_NAME":"STARLINK-1857","GP_ID":"230261144","FILE":"3889391","OBJECT_TYPE":"PAYLOAD","SITE":"AFETR","REF_FRAME":"TEME","NORAD_CAT_ID":"47144","DECAY_DATE":null,"RA_OF_ASC_NODE":"345.7574","TIME_SYSTEM":"UTC","COUNTRY_CODE":"US","MEAN_ELEMENT_THEORY":"SGP4","OBJECT_ID":"2020-088Y","BSTAR":"0.00251440000000","MEAN_ANOMALY":"300.0697","PERIAPSIS":"546.511","ECCENTRICITY":"0.00009270"},{"FILE":"3889292","GP_ID":"230239619","OBJECT_NAME":"STARLINK-1860","REF_FRAME":"TEME","NORAD_CAT_ID":"47147","SITE":"AFETR","OBJECT_TYPE":"PAYLOAD","RA_OF_ASC_NODE":"5.9452","DECAY_DATE":null,"TIME_SYSTEM":"UTC","COUNTRY_CODE":"US","MEAN_ELEMENT_THEORY":"SGP4","OBJECT_ID":"2020-088AB","BSTAR":"-0.00002892000000","MEAN_ANOMALY":"278.4171","ECCENTRICITY":"0.00009440","PERIAPSIS":"546.585","EPHEMERIS_TYPE":"0","SEMIMAJOR_AXIS":"6925.374","ELEMENT_SET_NO":"999","CLASSIFICATION_TYPE":"U","RCS_SIZE":"LARGE","PERIOD":"95.593","ARG_OF_PERICENTER":"81.6925","REV_AT_EPOCH":"13280","INCLINATION":"53.0558","LAUNCH_DATE":"2020-11-25","EPOCH":"2023-04-17T20:27:47.137824","MEAN_MOTION_DDOT":"0.0000000000000","MEAN_MOTION_DOT":"-0.00000712","TLE_LINE1":"1 47147U 20088AB  23107.85262891 -.00000712  00000-0 -28920-4 0  9992","CENTER_NAME":"EARTH","MEAN_MOTION":"15.06391641","TLE_LINE2":"2 47147  53.0558   5.9452 0000944  81.6925 278.4171 15.06391641132804","APOAPSIS":"547.893"},{"PERIOD":"95.590","RCS_SIZE":"LARGE","ARG_OF_PERICENTER":"63.3361","REV_AT_EPOCH":"13269","INCLINATION":"53.0565","LAUNCH_DATE":"2020-11-25","EPOCH":"2023-04-17T21:27:30.845664","MEAN_MOTION_DDOT":"0.0000000000000","EPHEMERIS_TYPE":"0","SEMIMAJOR_AXIS":"6925.261","ELEMENT_SET_NO":"999","CLASSIFICATION_TYPE":"U","CENTER_NAME":"EARTH","MEAN_MOTION":"15.06428471","APOAPSIS":"547.738","TLE_LINE2":"2 47148  53.0565 355.7562 0000883  63.3361 296.7718 15.06428471132693","MEAN_MOTION_DOT":"0.00036918","TLE_LINE1":"1 47148U 20088AC  23107.89410701  .00036918  00000-0  24825-2 0  9995","DECAY_DATE":null,"RA_OF_ASC_NODE":"355.7562","GP_ID":"230261645","FILE":"3889391","OBJECT_NAME":"STARLINK-1861","REF_FRAME":"TEME","NORAD_CAT_ID":"47148","SITE":"AFETR","OBJECT_TYPE":"PAYLOAD","MEAN_ANOMALY":"296.7718","ECCENTRICITY":"0.00008830","PERIAPSIS":"546.515","COUNTRY_CODE":"US","TIME_SYSTEM":"UTC","MEAN_ELEMENT_THEORY":"SGP4","OBJECT_ID":"2020-088AC","BSTAR":"0.00248250000000"},{"APOAPSIS":"548.075","TLE_LINE2":"2 47149  53.0561   5.9240 0001234  98.1918 261.9211 15.06397612133282","MEAN_MOTION":"15.06397612","CENTER_NAME":"EARTH","TLE_LINE1":"1 47149U 20088AD  23107.85631649  .00004971  00000-0  35239-3 0  9994","MEAN_MOTION_DOT":"0.00004971","MEAN_MOTION_DDOT":"0.0000000000000","EPOCH":"2023-04-17T20:33:05.744736","LAUNCH_DATE":"2020-11-25","INCLINATION":"53.0561","REV_AT_EPOCH":"13328","ARG_OF_PERICENTER":"98.1918","PERIOD":"95.592","RCS_SIZE":"LARGE","CLASSIFICATION_TYPE":"U","ELEMENT_SET_NO":"999","SEMIMAJOR_AXIS":"6925.356","EPHEMERIS_TYPE":"0","PERIAPSIS":"546.366","ECCENTRICITY":"0.00012340","MEAN_ANOMALY":"261.9211","BSTAR":"0.00035239000000","OBJECT_ID":"2020-088AD","MEAN_ELEMENT_THEORY":"SGP4","COUNTRY_CODE":"US","TIME_SYSTEM":"UTC","DECAY_DATE":null,"RA_OF_ASC_NODE":"5.9240","SITE":"AFETR","OBJECT_TYPE":"PAYLOAD","NORAD_CAT_ID":"47149","REF_FRAME":"TEME","OBJECT_NAME":"STARLINK-1862","FILE":"3889391","GP_ID":"230262394"}];
